[{"OBJECT_NAME":"LEMUR-2-WILSON","OBJECT_ID":"2025-009CP","EPOCH":"2026-03-09T05:30:24.962112","MEAN_MOTION":14.94676648,"ECCENTRICITY":0.00035998,"INCLINATION":97.7068,"RA_OF_ASC_NODE":148.4663,"ARG_OF_PERICENTER":38.3481,"MEAN_ANOMALY":321.7994,"EPHEMERIS_TYPE":0,"CLASSIFICATION_TYPE":"U","NORAD_CAT_ID":62694,"ELEMENT_SET_NO":999,"REV_AT_EPOCH":6242,"BSTAR":0.00038001,"MEAN_MOTION_DOT":4.065e-5,"MEAN_MOTION_DDOT":0},{"OBJECT_NAME":"CZ-2C DEB","OBJECT_ID":"2014-014E","EPOCH":"2026-03-09T21:08:21.809472","MEAN_MOTION":14.90058698,"ECCENTRICITY":0.00536612,"INCLINATION":98.2109,"RA_OF_ASC_NODE":181.9668,"ARG_OF_PERICENTER":42.9038,"MEAN_ANOMALY":317.6346,"EPHEMERIS_TYPE":0,"CLASSIFICATION_TYPE":"U","NORAD_CAT_ID":39628,"ELEMENT_SET_NO":999,"REV_AT_EPOCH":63514,"BSTAR":0.00154127,"MEAN_MOTION_DOT":0.00015258,"MEAN_MOTION_DDOT":0}]
